{
  "type": "FeatureCollection",
  "features": [
    {
      "type": "Feature",
      "properties": {
        "norad_id": 47042,
        "name": "FENGYUN 1C DEB",
        "group": "fengyun-1c-debris",
        "lat": 24.991873473100654,
        "lon": -129.35315846171574,
        "alt_km": 782.2654977830671,
        "timestamp": "2025-12-03T13:52:09.852816+00:00",
        "meta_object_name": "FENGYUN 1C DEB",
        "meta_object_id": "1999-025FBU",
        "meta_epoch": "2025-12-02T22:50:44.179872",
        "meta_mean_motion": 14.22815893,
        "meta_eccentricity": 0.00555195,
        "meta_inclination": 99.0007,
        "meta_ra_of_asc_node": 234.2444,
        "meta_arg_of_pericenter": 62.265,
        "meta_mean_anomaly": 358.9067,
        "meta_ephemeris_type": 0,
        "meta_classification_type": "U",
        "meta_norad_cat_id": 47042,
        "meta_element_set_no": 999,
        "meta_rev_at_epoch": 62382,
        "meta_bstar": 0.00035803178,
        "meta_mean_motion_dot": 7.7e-06,
        "meta_mean_motion_ddot": 0,
        "tle_line1": "1 47042U 99025FBU 25336.95190023  .00000770  00000+0  35803-3 0  9995",
        "tle_line2": "2 47042  99.0007 234.2444 0055519  62.2650 358.9067 14.22815893623825"
      },
      "geometry": {
        "type": "Point",
        "coordinates": [
          -129.35315846171574,
          24.991873473100654
        ]
      }
    },
    {
      "type": "Feature",
      "properties": {
        "norad_id": 47100,
        "name": "FENGYUN 1C DEB",
        "group": "fengyun-1c-debris",
        "lat": -65.87594712465093,
        "lon": 177.2140958275203,
        "alt_km": 726.8572370140691,
        "timestamp": "2025-12-03T13:52:09.852826+00:00",
        "meta_object_name": "FENGYUN 1C DEB",
        "meta_object_id": "1999-025FBY",
        "meta_epoch": "2025-12-03T00:56:20.952096",
        "meta_mean_motion": 14.51189075,
        "meta_eccentricity": 0.00894176,
        "meta_inclination": 99.0205,
        "meta_ra_of_asc_node": 155.8599,
        "meta_arg_of_pericenter": 22.7728,
        "meta_mean_anomaly": 337.7393,
        "meta_ephemeris_type": 0,
        "meta_classification_type": "U",
        "meta_norad_cat_id": 47100,
        "meta_element_set_no": 999,
        "meta_rev_at_epoch": 26627,
        "meta_bstar": 0.0022855765,
        "meta_mean_motion_dot": 9.516e-05,
        "meta_mean_motion_ddot": 0,
        "tle_line1": "1 47100U 99025FBY 25337.03913139  .00009516  00000+0  22856-2 0  9991",
        "tle_line2": "2 47100  99.0205 155.8599 0089417  22.7728 337.7393 14.51189075266277"
      },
      "geometry": {
        "type": "Point",
        "coordinates": [
          177.2140958275203,
          -65.87594712465093
        ]
      }
    },
    {
      "type": "Feature",
      "properties": {
        "norad_id": 47104,
        "name": "FENGYUN 1C DEB",
        "group": "fengyun-1c-debris",
        "lat": -16.996304541494176,
        "lon": -175.6690686723118,
        "alt_km": 861.1598549352684,
        "timestamp": "2025-12-03T13:52:09.852837+00:00",
        "meta_object_name": "FENGYUN 1C DEB",
        "meta_object_id": "1999-025FCC",
        "meta_epoch": "2025-12-03T07:52:04.756512",
        "meta_mean_motion": 14.19412499,
        "meta_eccentricity": 0.00414121,
        "meta_inclination": 98.9139,
        "meta_ra_of_asc_node": 6.829,
        "meta_arg_of_pericenter": 4.0939,
        "meta_mean_anomaly": 356.0568,
        "meta_ephemeris_type": 0,
        "meta_classification_type": "U",
        "meta_norad_cat_id": 47104,
        "meta_element_set_no": 999,
        "meta_rev_at_epoch": 62239,
        "meta_bstar": 0.000321024,
        "meta_mean_motion_dot": 6.36e-06,
        "meta_mean_motion_ddot": 0,
        "tle_line1": "1 47104U 99025FCC 25337.32783283  .00000636  00000+0  32102-3 0  9992",
        "tle_line2": "2 47104  98.9139   6.8290 0041412   4.0939 356.0568 14.19412499622398"
      },
      "geometry": {
        "type": "Point",
        "coordinates": [
          -175.6690686723118,
          -16.996304541494176
        ]
      }
    }
  ]
}